STARLINK-31289          
1 59173U 24044X   26068.81036351  .00000117  00000+0  13801-4 0  9993
2 59173  43.0075 106.3738 0003214 275.0621  84.9864 15.27560668113614
FLOCK 4G-26             
1 62633U 25009AA  26068.80489479  .00011283  00000+0  42469-3 0  9999
2 62633  97.4054 151.3913 0001988 299.1273  60.9767 15.27281631 63733
